SALSAT                  
1 46495U 20068K   26131.44372140  .00005006  00000+0  17904-3 0  9996
2 46495  97.8862 132.2890 0011572  75.4801 284.7721 15.29251188309742
ICEYE-X6                
1 46497U 20068M   26131.87566756  .00001322  00000+0  99690-4 0  9993
2 46497  98.0964 123.8205 0006446 200.9856 159.1105 15.04320933307775
NETSAT-4                
1 46504U 20068U   26131.22973328  .00011889  00000+0  27496-3 0  9991
2 46504  97.8621 136.5388 0007676  95.0170 265.1952 15.42631433310079
NETSAT-3                
1 46505U 20068V   26131.72633575  .00011414  00000+0  27498-3 0  9990
2 46505  97.8668 135.3388 0007517 106.3702 253.8370 15.41412498310063
NETSAT-1                
1 46506U 20068W   26131.47962740  .00008038  00000+0  24890-3 0  9993
2 46506  97.8754 129.8268 0006700 125.9205 234.2659 15.33739661309676
NETSAT-2                
1 46507U 20068X   26131.76994213  .00014483  00000+0  31481-3 0  9991
2 46507  97.8635 136.8936 0006193 114.1091 246.0805 15.44440259310113
TIANQI-6                
1 46810U 20076D   26131.76846372  .00002338  00000+0  15495-3 0  9992
2 46810  34.9993 271.9355 0010519 211.7302 148.2774 15.06944584303085
KSM1-C                  
1 46906U 20081B   26131.79082428  .00005684  00000+0  21860-3 0  9991
2 46906  36.8940 283.5344 0002934 267.2076  92.8337 15.26145143303600
KSM1-D                  
1 46907U 20081C   26131.81088057  .00005176  00000+0  21122-3 0  9996
2 46907  36.8969 291.7329 0004958 303.7175  56.3100 15.24216052303542
KSM1-A                  
1 46912U 20081H   26131.77580296  .00005327  00000+0  20973-3 0  9990
2 46912  36.8965 285.7472 0002939 357.3501   2.7232 15.25402132303617
R2                      
1 46913U 20081J   26131.71959238  .00005005  00000+0  20013-3 0  9999
2 46913  36.8978 285.8954 0007689 327.1844  32.8426 15.24910302306412
KSM1-B                  
1 46914U 20081K   26131.80941434  .00004797  00000+0  19720-3 0  9999
2 46914  36.9022 292.2610 0006340 324.2798  35.7526 15.24014957306632
GONETS-M 20             
1 47227U 20091A   26131.78248616  .00000045  00000+0  25308-3 0  9998
2 47227  82.5043 325.0735 0019967 259.9108  99.9719 12.42892624246553
GONETS-M 21             
1 47228U 20091B   26131.83665892  .00000027  00000+0  12691-3 0  9995
2 47228  82.4966 323.7691 0013808 274.8927  85.0576 12.42884546246557
GONETS-M 22             
1 47229U 20091C   26131.80990300 -.00000017  00000+0 -18967-3 0  9991
2 47229  82.5025 324.6675 0020844 254.8569 105.0205 12.42890551246505
CUBEL                   
1 47448U 21006AM  26131.40199249  .00005417  00000+0  13596-3 0  9990
2 47448  97.2365 182.3538 0005097 315.3760  44.7076 15.40416335294091
ARKTIKA-M 1             
1 47719U 21016A   26129.11511190 -.00000078  00000+0  00000+0 0  9991
2 47719  63.2307  63.2755 7273343 269.7576  14.8669  2.00634688 38002
STARLINK-2342           
1 47883U 21021Z   26131.83613332  .00074898  00000+0  11199-2 0  9996
2 47883  53.1573 326.0131 0003416 202.9464 157.1395 15.54360628286213
GRUS-1B                 
1 47934U 21022C   26131.86173578  .00000186  00000+0  20104-4 0  9997
2 47934  97.5425  16.2474 0017205  81.7004 278.6169 14.98893248280454
UNISAT-7                
1 47945U 21022P   26131.64080109  .00008473  00000+0  21785-3 0  9994
2 47945  97.3919  36.2075 0008621 192.1305 167.9735 15.39491183284231
GLOBAL-9                
1 47971U 21023G   26131.28988429  .00013070  00000+0  27697-3 0  9993
2 47971  44.9806  97.6678 0002229  87.6809 272.4336 15.45123725289233
AII-BRAVO               
1 48270U 21034C   26131.74551969  .00002432  00000+0  18417-3 0  9994
2 48270  97.5658 187.4903 0007032  48.4471 311.7357 15.03194421274140
TYVAK-182A              
1 48271U 21034D   26131.12174277  .00003744  00000+0  26229-3 0  9997
2 48271  97.5738 190.6881 0007256  98.1950 262.0100 15.05804986274255
CSS (TIANHE)            
1 48274U 21035A   26131.49630319  .00032325  00000+0  36027-3 0  9999
2 48274  41.4667 185.1700 0004284 287.6488  72.3883 15.62123975287434
TYVAK-0130              
1 48606U 21041BF  26131.46526113  .00004389  00000+0  17592-3 0  9993
2 48606  52.9932 196.5549 0011093  58.3575 301.8503 15.27053901274772
HAIYANG-2D              
1 48621U 21043A   26131.85591547 -.00000006  00000+0  68313-4 0  9999
2 48621  66.0001  35.1523 0011411 273.5653  86.4110 13.83372684251524
TYVAK-0173              
1 48892U 21059P   26131.86799523  .00001099  00000+0  14323-3 0  9994
2 48892  96.0084 217.2545 0010278 143.8867 216.3046 14.81764396262866
